NORAD_CAT_ID,OBJECT_NAME,OBJECT_TYPE,EPOCH,MEAN_MOTION,ECCENTRICITY,INCLINATION,RA_OF_ASC_NODE,ARG_OF_PERICENTER,MEAN_ANOMALY,BSTAR,MEAN_MOTION_DOT,MEAN_MOTION_DDOT,TLE_LINE0,TLE_LINE1,TLE_LINE2,SEMIMAJOR_AXIS,PERIOD,APOGEE,PERIGEE,DECAYED
54192.0,STARLINK-5268,PAYLOAD,2024-08-03 20:32:25,15.08853521,0.0001628,53.2154,90.294,86.1787,273.9391,0.0012811,0.00020167,0.0,0 STARLINK-5268,1 54192U 22141AM  24216.85584950  .00020167  00000-0  12811-2 0  9991,2 54192  53.2154  90.2940 0001628  86.1787 273.9391 15.08853521 98246,6917.839,95.437,540.83,538.578,0.0
54192.0,STARLINK-5268,PAYLOAD,2024-08-03 22:07:48,15.08857665,0.0001634,53.2154,89.9964,86.9265,273.1914,0.001361,0.00021449,0.0,0 STARLINK-5268,1 54192U 22141AM  24216.92208865  .00021449  00000-0  13610-2 0  9999,2 54192  53.2154  89.9964 0001634  86.9265 273.1914 15.08857665 98025,6917.826,95.436,540.822,538.561,0.0
54192.0,STARLINK-5268,PAYLOAD,2024-08-04 20:23:11,15.08868141,0.0001616,53.2155,85.8325,89.3898,270.7279,0.001104,0.00017339,0.0,0 STARLINK-5268,1 54192U 22141AM  24217.84944264  .00017339  00000-0  11040-2 0  9999,2 54192  53.2155  85.8325 0001616  89.3898 270.7279 15.08868141 98399,6917.794,95.436,540.777,538.541,0.0
54192.0,STARLINK-5268,PAYLOAD,2024-08-04 21:58:34,15.08876646,0.0001777,53.2145,85.5302,100.4995,259.6197,0.0014206,0.00022416,0.0,0 STARLINK-5268,1 54192U 22141AM  24217.91567994  .00022416  00000-0  14206-2 0  9997,2 54192  53.2145  85.5302 0001777 100.4995 259.6197 15.08876646 98171,6917.768,95.435,540.863,538.404,0.0
54192.0,STARLINK-5268,PAYLOAD,2024-08-05 02:44:43,15.08894481,0.0001402,53.2157,84.6433,94.834,265.2812,0.0018944,0.00030035,0.0,0 STARLINK-5268,1 54192U 22141AM  24218.11439375  .00030035  00000-0  18944-2 0  9990,2 54192  53.2157  84.6433 0001402  94.8340 265.2812 15.08894481 98437,6917.714,95.434,540.549,538.609,0.0
54192.0,STARLINK-5268,PAYLOAD,2024-08-05 21:49:22,15.08841705,0.0001257,53.2161,81.075,84.4988,275.6147,0.00064542,9.999e-05,0.0,0 STARLINK-5268,1 54192U 22141AM  24218.90928328  .00009999  00000-0  64542-3 0  9999,2 54192  53.2161  81.0750 0001257  84.4988 275.6147 15.08841705 98556,6917.875,95.437,540.61,538.871,0.0
54192.0,STARLINK-5268,PAYLOAD,2024-08-06 07:21:41,15.0883738,0.0001323,53.2145,79.2882,74.0843,286.0294,7.7239e-05,9.41e-06,0.0,0 STARLINK-5268,1 54192U 22141AM  24219.30672565  .00000941  00000-0  77239-4 0  9999,2 54192  53.2145  79.2882 0001323  74.0843 286.0294 15.08837380 98612,6917.888,95.438,540.669,538.838,0.0
54192.0,STARLINK-5268,PAYLOAD,2024-08-06 15:18:37,15.08830296,0.0001207,53.2147,77.8018,76.7672,283.3454,-1.1884e-05,-4.77e-06,0.0,0 STARLINK-5268,1 54192U 22141AM  24219.63792917 -.00000477  00000-0 -11884-4 0  9999,2 54192  53.2147  77.8018 0001207  76.7672 283.3454 15.08830296 98436,6917.91,95.438,540.61,538.94,0.0
54192.0,STARLINK-5268,PAYLOAD,2024-08-06 21:40:09,15.08839298,0.0001305,53.217,76.6114,85.7066,274.4075,5.2282e-05,5.44e-06,0.0,0 STARLINK-5268,1 54192U 22141AM  24219.90288668  .00000544  00000-0  52282-4 0  9992,2 54192  53.2170  76.6114 0001305  85.7066 274.4075 15.08839298 98477,6917.883,95.438,540.65,538.845,0.0
54192.0,STARLINK-5268,PAYLOAD,2024-08-07 13:34:01,15.0883811,0.0001615,53.2167,73.6382,88.115,272.0027,0.00036303,5.494e-05,0.0,0 STARLINK-5268,1 54192U 22141AM  24220.56529036  .00005494  00000-0  36303-3 0  9997,2 54192  53.2167  73.6382 0001615  88.1150 272.0027 15.08838110 98802,6917.886,95.438,540.868,538.634,0.0
54192.0,STARLINK-5268,PAYLOAD,2024-08-07 19:55:33,15.08847261,0.0001181,53.2166,72.4506,95.4774,264.6353,0.00033693,5.079e-05,0.0,0 STARLINK-5268,1 54192U 22141AM  24220.83024682  .00005079  00000-0  33693-3 0  9992,2 54192  53.2166  72.4506 0001181  95.4774 264.6353 15.08847261 98612,6917.858,95.437,540.54,538.906,0.0
54192.0,STARLINK-5268,PAYLOAD,2024-08-08 00:41:42,15.08852982,0.0001118,53.2156,71.5565,102.8103,257.3014,0.00043596,6.66e-05,0.0,0 STARLINK-5268,1 54192U 22141AM  24221.02896410  .00006660  00000-0  43596-3 0  9990,2 54192  53.2156  71.5565 0001118 102.8103 257.3014 15.08852982 98647,6917.841,95.437,540.479,538.932,0.0
54192.0,STARLINK-5268,PAYLOAD,2024-08-08 19:46:20,15.0884754,0.0001581,53.2163,67.9811,133.9591,226.1532,0.00029163,4.357e-05,0.0,0 STARLINK-5268,1 54192U 22141AM  24221.82384593  .00004357  00000-0  29163-3 0  9997,2 54192  53.2163  67.9811 0001581 133.9591 226.1532 15.08847540 98999,6917.857,95.437,540.816,538.629,0.0
54192.0,STARLINK-5268,PAYLOAD,2024-08-08 21:21:43,15.08845849,0.0001441,53.2161,67.6893,65.031,295.0831,0.00038111,5.784e-05,0.0,0 STARLINK-5268,1 54192U 22141AM  24221.89009049  .00005784  00000-0  38111-3 0  9992,2 54192  53.2161  67.6893 0001441  65.0310 295.0831 15.08845849 98776,6917.863,95.437,540.724,538.731,0.0
54192.0,STARLINK-5268,PAYLOAD,2024-08-09 13:15:35,15.08837143,0.0001174,53.2162,64.7205,88.0034,272.1093,0.00022398,3.278e-05,0.0,0 STARLINK-5268,1 54192U 22141AM  24222.55249075  .00003278  00000-0  22398-3 0  9997,2 54192  53.2162  64.7205 0001174  88.0034 272.1093 15.08837143 99105,6917.889,95.438,540.566,538.942,0.0
54192.0,STARLINK-5268,PAYLOAD,2024-08-09 21:12:30,15.08852418,0.0001074,53.2164,63.231,106.0069,254.1042,0.00037702,5.72e-05,0.0,0 STARLINK-5268,1 54192U 22141AM  24222.88368666  .00005720  00000-0  37702-3 0  9990,2 54192  53.2164  63.2310 0001074 106.0069 254.1042 15.08852418 98921,6917.842,95.437,540.45,538.964,0.0
54192.0,STARLINK-5268,PAYLOAD,2024-08-09 22:47:53,15.08853398,0.000109,53.216,62.9329,103.5386,256.5727,0.00077871,0.00012131,0.0,0 STARLINK-5268,1 54192U 22141AM  24222.94992839  .00012131  00000-0  77871-3 0  9997,2 54192  53.2160  62.9329 0001090 103.5386 256.5727 15.08853398 99166,6917.839,95.437,540.458,538.95,0.0
54192.0,STARLINK-5268,PAYLOAD,2024-08-10 19:27:54,15.08851085,0.0001631,53.2167,59.069,58.7458,301.3694,0.00062783,9.721e-05,0.0,0 STARLINK-5268,1 54192U 22141AM  24223.81105272  .00009721  00000-0  62783-3 0  9998,2 54192  53.2167  59.0690 0001631  58.7458 301.3694 15.08851085 99290,6917.847,95.437,540.84,538.583,0.0
54192.0,STARLINK-5268,PAYLOAD,2024-08-11 12:57:09,15.08845781,0.0002008,53.2165,55.7952,94.742,265.3802,0.00037458,5.679e-05,0.0,0 STARLINK-5268,1 54192U 22141AM  24224.53969211  .00005679  00000-0  37458-3 0  9998,2 54192  53.2165  55.7952 0002008  94.7420 265.3802 15.08845781 99409,6917.863,95.437,541.117,538.339,0.0
54192.0,STARLINK-5268,PAYLOAD,2024-08-11 19:18:41,15.08851344,0.0002267,53.2163,54.6053,97.1766,262.9484,0.00054806,8.448e-05,0.0,0 STARLINK-5268,1 54192U 22141AM  24224.80465144  .00008448  00000-0  54806-3 0  9997,2 54192  53.2163  54.6053 0002267  97.1766 262.9484 15.08851344 99214,6917.846,95.437,541.279,538.142,0.0
54192.0,STARLINK-5268,PAYLOAD,2024-08-12 12:47:56,15.08850184,3.74e-05,53.2172,51.3368,9.0732,351.0267,0.00032468,4.885e-05,0.0,0 STARLINK-5268,1 54192U 22141AM  24225.53329095  .00004885  00000-0  32468-3 0  9993,2 54192  53.2172  51.3368 0000374   9.0732 351.0267 15.08850184 99556,6917.849,95.437,539.973,539.456,0.0
54192.0,STARLINK-5268,PAYLOAD,2024-08-12 19:09:28,15.08868722,4.3e-05,53.2175,50.1472,73.8402,286.2638,0.00074427,0.00011586,0.0,0 STARLINK-5268,1 54192U 22141AM  24225.79824407  .00011586  00000-0  74427-3 0  9995,2 54192  53.2175  50.1472 0000430  73.8402 286.2638 15.08868722 99590,6917.793,95.436,539.955,539.36,0.0
54192.0,STARLINK-5268,PAYLOAD,2024-08-13 12:38:44,15.08817891,0.0001463,53.2062,46.8695,89.0936,271.0224,-0.00027221,-4.615e-05,0.0,0 STARLINK-5268,1 54192U 22141AM  24226.52690385 -.00004615  00000-0 -27221-3 0  9990,2 54192  53.2062  46.8695 0001463  89.0936 271.0224 15.08817891 99709,6917.948,95.439,540.825,538.801,0.0
54192.0,STARLINK-5268,PAYLOAD,2024-08-13 22:11:04,15.08801445,0.0001068,53.2204,45.0933,336.1093,23.9849,-0.00050196,-8.259e-05,0.0,0 STARLINK-5268,1 54192U 22141AM  24226.92435810 -.00008259  00000-0 -50196-3 0  9999,2 54192  53.2204  45.0933 0001068 336.1093  23.9849 15.08801445 99530,6917.998,95.44,540.602,539.124,0.0
54192.0,STARLINK-5268,PAYLOAD,2024-08-14 04:32:36,15.08824076,0.0002822,53.2237,43.906,267.0752,92.9917,7.0827e-06,-1.76e-06,0.0,0 STARLINK-5268,1 54192U 22141AM  24227.18930874 -.00000176  00000-0  70827-5 0  9992,2 54192  53.2237  43.9060 0002822 267.0752  92.9917 15.08824076 99804,6917.929,95.439,541.746,537.842,0.0
54192.0,STARLINK-5268,PAYLOAD,2024-08-14 18:51:05,15.08842269,0.0001014,53.2176,41.2295,69.2382,290.8719,0.00073576,0.00011442,0.0,0 STARLINK-5268,1 54192U 22141AM  24227.78547600  .00011442  00000-0  73576-3 0  9998,2 54192  53.2176  41.2295 0001014  69.2382 290.8719 15.08842269 99892,6917.873,95.437,540.44,539.037,0.0
54192.0,STARLINK-5268,PAYLOAD,2024-08-15 04:23:23,15.08850308,0.0001191,53.2172,39.4449,69.8252,290.2869,0.00076491,0.0001191,0.0,0 STARLINK-5268,1 54192U 22141AM  24228.18291579  .00011910  00000-0  76491-3 0  9993,2 54192  53.2172  39.4449 0001191  69.8252 290.2869 15.08850308 99721,6917.849,95.437,540.538,538.89,0.0
54192.0,STARLINK-5268,PAYLOAD,2024-08-16 04:14:09,15.08858841,0.0001103,53.2175,34.9848,62.1917,297.9187,0.00053091,8.176e-05,0.0,0 STARLINK-5268,1 54192U 22141AM  24229.17650288  .00008176  00000-0  53091-3 0  9990,2 54192  53.2175  34.9848 0001103  62.1917 297.9187 15.08858841100106,6917.823,95.436,540.451,538.925,0.0
54192.0,STARLINK-5268,PAYLOAD,2024-08-16 20:08:00,15.08849072,0.0001071,53.2172,32.0109,60.6273,299.4826,-0.00015574,-2.766e-05,0.0,0 STARLINK-5268,1 54192U 22141AM  24229.83889698 -.00002766  00000-0 -15574-3 0  9997,2 54192  53.2172  32.0109 0001071  60.6273 299.4826 15.08849072100208,6917.853,95.437,540.459,538.977,0.0
54192.0,STARLINK-5268,PAYLOAD,2024-08-17 19:58:48,15.08835086,0.0001154,53.2177,27.5504,60.9046,299.2061,-0.00016551,-2.921e-05,0.0,0 STARLINK-5268,1 54192U 22141AM  24230.83250585 -.00002921  00000-0 -16551-3 0  9995,2 54192  53.2177  27.5504 0001154  60.9046 299.2061 15.08835086100359,6917.895,95.438,540.559,538.962,0.0
